[{"OBJECT_NAME":"WORLDVIEW-2 (WV-2)","OBJECT_ID":"2009-055A","EPOCH":"2026-03-09T22:27:15.689664","MEAN_MOTION":14.37910721,"ECCENTRICITY":0.00050548,"INCLINATION":98.4692,"RA_OF_ASC_NODE":143.7977,"ARG_OF_PERICENTER":144.7175,"MEAN_ANOMALY":215.4347,"EPHEMERIS_TYPE":0,"CLASSIFICATION_TYPE":"U","NORAD_CAT_ID":35946,"ELEMENT_SET_NO":999,"REV_AT_EPOCH":86138,"BSTAR":7.9928144e-5,"MEAN_MOTION_DOT":1.98e-6,"MEAN_MOTION_DDOT":0},{"OBJECT_NAME":"COSMOS 1867 COOLANT","OBJECT_ID":"1987-060AL","EPOCH":"2026-03-09T05:27:40.200768","MEAN_MOTION":14.33716934,"ECCENTRICITY":0.00139053,"INCLINATION":65.0108,"RA_OF_ASC_NODE":294.4499,"ARG_OF_PERICENTER":279.7561,"MEAN_ANOMALY":80.1954,"EPHEMERIS_TYPE":0,"CLASSIFICATION_TYPE":"U","NORAD_CAT_ID":39673,"ELEMENT_SET_NO":999,"REV_AT_EPOCH":62257,"BSTAR":0.00014692243,"MEAN_MOTION_DOT":3.08e-6,"MEAN_MOTION_DDOT":0}]
